NORAD_CAT_ID,OBJECT_NAME,OBJECT_TYPE,EPOCH,MEAN_MOTION,ECCENTRICITY,INCLINATION,RA_OF_ASC_NODE,ARG_OF_PERICENTER,MEAN_ANOMALY,BSTAR,MEAN_MOTION_DOT,MEAN_MOTION_DDOT,TLE_LINE0,TLE_LINE1,TLE_LINE2,SEMIMAJOR_AXIS,PERIOD,APOGEE,PERIGEE,DECAYED
51724.0,STARLINK-3529,PAYLOAD,2022-10-13 01:10:37,15.08833559,0.0002065999999999,53.2172,152.0392,44.3525,315.7633,4.7335e-05,4.65e-06,0.0,0 STARLINK-3529,1 51724U 22016L   22286.04904589  .00000465  00000-0  47335-4 0  9990,2 51724  53.2172 152.0392 0002066  44.3525 315.7633 15.08833559 35676,6917.9,95.438,541.194,538.336,0.0
51724.0,STARLINK-3529,PAYLOAD,2022-10-13 21:50:38,15.08826522,0.0002082,53.2174,148.1737,49.4063,310.711,0.00012079,1.634e-05,0.0,0 STARLINK-3529,1 51724U 22016L   22286.91017025  .00001634  00000-0  12079-3 0  9991,2 51724  53.2174 148.1737 0002082  49.4063 310.7110 15.08826522 35800,6917.922,95.438,541.227,538.346,0.0
51724.0,STARLINK-3529,PAYLOAD,2022-10-14 01:01:25,15.08824237,0.0002002,53.2177,147.5787,45.207,314.9084,8.8203e-05,1.115e-05,0.0,0 STARLINK-3529,1 51724U 22016L   22287.04265350  .00001115  00000-0  88203-4 0  9999,2 51724  53.2177 147.5787 0002002  45.2070 314.9084 15.08824237 35824,6917.929,95.439,541.179,538.409,0.0
51724.0,STARLINK-3529,PAYLOAD,2022-10-15 00:52:12,15.08836486,0.0002015,53.2183,143.118,40.2279,319.8862,4.6769e-05,4.56e-06,0.0,0 STARLINK-3529,1 51724U 22016L   22288.03625279  .00000456  00000-0  46769-4 0  9997,2 51724  53.2183 143.1180 0002015  40.2279 319.8862 15.08836486 37032,6917.891,95.438,541.15,538.362,0.0
51724.0,STARLINK-3529,PAYLOAD,2022-10-15 07:13:44,15.08833346,0.0001965,53.2176,141.9288,40.9698,319.1442,7.5255e-05,9.1e-06,0.0,0 STARLINK-3529,1 51724U 22016L   22288.30121441  .00000910  00000-0  75255-4 0  9996,2 51724  53.2176 141.9288 0001965  40.9698 319.1442 15.08833346 36010,6917.901,95.438,541.125,538.406,0.0
51724.0,STARLINK-3529,PAYLOAD,2022-10-15 16:46:03,15.08836483,0.0001955,53.2172,140.1446,41.951,318.1632,7.8884e-05,9.67e-06,0.0,0 STARLINK-3529,1 51724U 22016L   22288.69865379  .00000967  00000-0  78884-4 0  9996,2 51724  53.2172 140.1446 0001955  41.9510 318.1632 15.08836483 36077,6917.891,95.438,541.109,538.404,0.0
51724.0,STARLINK-3529,PAYLOAD,2022-10-16 00:42:59,15.08831217,0.0002165999999999,53.2174,138.658,41.2213,318.8943,2.9083000000000013e-05,1.75e-06,0.0,0 STARLINK-3529,1 51724U 22016L   22289.02986007  .00000175  00000-0  29083-4 0  9994,2 51724  53.2174 138.6580 0002166  41.2213 318.8943 15.08831217 37183,6917.906999999997,95.438,541.271,538.274,0.0
51724.0,STARLINK-3529,PAYLOAD,2022-10-16 19:47:37,15.08837016,0.0002295999999999,53.2177,135.0894,41.7199,318.3968,5.6517e-05,6.11e-06,0.0,0 STARLINK-3529,1 51724U 22016L   22289.82473904  .00000611  00000-0  56517-4 0  9996,2 51724  53.2177 135.0894 0002296  41.7199 318.3968 15.08837016 36248,6917.89,95.438,541.3430000000002,538.1659999999998,0.0
51724.0,STARLINK-3529,PAYLOAD,2022-10-16 22:58:23,15.0884155,0.0002234999999999,53.2175,134.4949,43.4386,316.6782,9.3299e-05,1.197e-05,0.0,0 STARLINK-3529,1 51724U 22016L   22289.95721529  .00001197  00000-0  93299-4 0  9997,2 51724  53.2175 134.4949 0002235  43.4386 316.6782 15.08841550 37323,6917.876,95.437,541.2869999999998,538.195,0.0
51724.0,STARLINK-3529,PAYLOAD,2022-10-17 06:55:19,15.08833269,0.0002129,53.2172,133.0077,45.541,314.5756,1.3332e-05,-7.6e-07,0.0,0 STARLINK-3529,1 51724U 22016L   22290.28842335 -.00000076  00000-0  13332-4 0  9990,2 51724  53.2172 133.0077 0002129  45.5410 314.5756 15.08833269 37371,6917.901,95.438,541.239,538.293,0.0
51724.0,STARLINK-3529,PAYLOAD,2022-10-17 13:16:52,15.08833867,0.0001992,53.2173,131.8183,46.8166,313.2992,2.2557e-05,7.1e-07,0.0,0 STARLINK-3529,1 51724U 22016L   22290.55338266  .00000071  00000-0  22557-4 0  9996,2 51724  53.2173 131.8183 0001992  46.8166 313.2992 15.08833867 36354,6917.899,95.438,541.1419999999998,538.386,0.0
51724.0,STARLINK-3529,PAYLOAD,2022-10-17 19:38:24,15.0883829,0.0002008999999999,53.2172,130.6294,46.2801,313.8358,-5.241e-06,-3.72e-06,0.0,0 STARLINK-3529,1 51724U 22016L   22290.81834139 -.00000372  00000-0 -52410-5 0  9993,2 51724  53.2172 130.6294 0002009  46.2801 313.8358 15.08838290 36394,6917.886,95.438,541.14,538.361,0.0
51724.0,STARLINK-3529,PAYLOAD,2022-10-18 06:46:06,15.08837853,0.0002204,53.2174,128.5479,47.0608,313.0569,0.00010722,1.418e-05,0.0,0 STARLINK-3529,1 51724U 22016L   22291.28202005  .00001418  00000-0  10722-3 0  9994,2 51724  53.2174 128.5479 0002204  47.0608 313.0569 15.08837853 37524,6917.887,95.438,541.2769999999998,538.227,0.0
51724.0,STARLINK-3529,PAYLOAD,2022-10-18 19:29:11,15.08839405,0.0002079,53.2176,126.1688,51.1242,308.9935,1.8075e-05,-1e-08,0.0,0 STARLINK-3529,1 51724U 22016L   22291.81194274 -.00000001  00000-0  18075-4 0  9999,2 51724  53.2176 126.1688 0002079  51.1242 308.9935 15.08839405 36548,6917.882,95.438,541.185,538.309,0.0
51724.0,STARLINK-3529,PAYLOAD,2022-10-19 12:58:26,15.08827847,0.0002005,53.2175,122.8974,50.61,309.507,0.00013963,1.934e-05,0.0,0 STARLINK-3529,1 51724U 22016L   22292.54058826  .00001934  00000-0  13963-3 0  9997,2 51724  53.2175 122.8974 0002005  50.6100 309.5070 15.08827847 37718,6917.918000000002,95.438,541.17,538.395,0.0
51724.0,STARLINK-3529,PAYLOAD,2022-10-19 22:30:45,15.08840553,0.0002091,53.2174,121.1136,48.9913,311.126,7.3718e-05,8.85e-06,0.0,0 STARLINK-3529,1 51724U 22016L   22292.93802260  .00000885  00000-0  73718-4 0  9998,2 51724  53.2174 121.1136 0002091  48.9913 311.1260 15.08840553 37771,6917.879,95.438,541.19,538.297,0.0
51724.0,STARLINK-3529,PAYLOAD,2022-10-20 19:10:45,15.08840685,0.000195,53.2164,117.247,47.3152,312.8005,8.9392e-05,1.135e-05,0.0,0 STARLINK-3529,1 51724U 22016L   22293.79914058  .00001135  00000-0  89392-4 0  9996,2 51724  53.2164 117.2470 0001950  47.3152 312.8005 15.08840685 36846,6917.878000000002,95.438,541.092,538.394,0.0
51724.0,STARLINK-3529,PAYLOAD,2022-10-21 11:04:37,15.08836638,0.000186,53.2149,114.2747,45.0288,315.0854,5.4795e-05,5.84e-06,0.0,0 STARLINK-3529,1 51724U 22016L   22294.46154440  .00000584  00000-0  54795-4 0  9998,2 51724  53.2149 114.2747 0001860  45.0288 315.0854 15.08836638 38008,6917.891,95.438,541.0419999999998,538.469,0.0
51724.0,STARLINK-3529,PAYLOAD,2022-10-21 12:40:00,15.08838393,0.0001934,53.2162,113.9762,45.4708,314.6442,2.3861000000000003e-06,-2.5e-06,0.0,0 STARLINK-3529,1 51724U 22016L   22294.52778562 -.00000250  00000-0  23861-5 0  9994,2 51724  53.2162 113.9762 0001934  45.4708 314.6442 15.08838393 36959,6917.885,95.438,541.0880000000002,538.4119999999998,0.0
51724.0,STARLINK-3529,PAYLOAD,2022-10-21 19:01:32,15.08841047,0.0001904,53.2156,112.787,44.0898,316.0245,2.3034e-05,7.8e-07,0.0,0 STARLINK-3529,1 51724U 22016L   22294.79274286  .00000078  00000-0  23034-4 0  9995,2 51724  53.2156 112.7870 0001904  44.0898 316.0245 15.08841047 36992,6917.877,95.437,541.059,538.425,0.0
51724.0,STARLINK-3529,PAYLOAD,2022-10-22 04:33:51,15.08846462,0.0002,53.2165,111.0029,47.9467,312.1695,5.377e-05,5.68e-06,0.0,0 STARLINK-3529,1 51724U 22016L   22295.19017814  .00000568  00000-0  53770-4 0  9996,2 51724  53.2165 111.0029 0002000  47.9467 312.1695 15.08846462 38110,6917.861,95.437,541.109,538.342,0.0
51724.0,STARLINK-3529,PAYLOAD,2022-10-22 12:30:47,15.08833789,0.0001859,53.2183,109.5196,50.5836,309.532,9.5463e-05,1.231e-05,0.0,0 STARLINK-3529,1 51724U 22016L   22295.52138417  .00001231  00000-0  95463-4 0  9999,2 51724  53.2183 109.5196 0001859  50.5836 309.5320 15.08833789 38166,6917.899,95.438,541.05,538.4780000000002,0.0
51724.0,STARLINK-3529,PAYLOAD,2022-10-22 20:27:43,15.08833964,0.0001956999999999,53.2173,108.0294,44.0516,316.0632,2.6382e-05,1.32e-06,0.0,0 STARLINK-3529,1 51724U 22016L   22295.85258742  .00000132  00000-0  26382-4 0  9992,2 51724  53.2173 108.0294 0001957  44.0516 316.0632 15.08833964 37152,6917.899,95.438,541.118,538.41,0.0
51724.0,STARLINK-3529,PAYLOAD,2022-10-23 12:21:34,15.08841858,0.0002008,53.2174,105.0552,49.0519,311.0646,4.7497e-05,4.68e-06,0.0,0 STARLINK-3529,1 51724U 22016L   22296.51498284  .00000468  00000-0  47497-4 0  9995,2 51724  53.2174 105.0552 0002008  49.0519 311.0646 15.08841858 37255,6917.875,95.437,541.129,538.351,0.0
51724.0,STARLINK-3529,PAYLOAD,2022-10-23 20:18:29,15.08846822,0.0002015,53.2177,103.5685,45.0051,315.1104,7.928899999999999e-05,9.74e-06,0.0,0 STARLINK-3529,1 51724U 22016L   22296.84617853  .00000974  00000-0  79289-4 0  9992,2 51724  53.2177 103.5685 0002015  45.0051 315.1104 15.08846822 37309,6917.86,95.437,541.118,538.331,0.0
51724.0,STARLINK-3529,PAYLOAD,2022-10-24 04:15:24,15.08878937,0.0001926,53.2176,102.0815,51.5095,308.607,-0.00030533,-5.15e-05,0.0,0 STARLINK-3529,1 51724U 22016L   22297.17736473 -.00005150  00000-0 -30533-3 0  9990,2 51724  53.2176 102.0815 0001926  51.5095 308.6070 15.08878937 38411,6917.761,95.435,540.9590000000002,538.294,0.0
51724.0,STARLINK-3529,PAYLOAD,2022-10-24 10:36:58,15.08835541,0.0002020999999999,53.2177,100.8922,49.0258,311.0908,0.0001013,1.324e-05,0.0,0 STARLINK-3529,1 51724U 22016L   22297.44234338  .00001324  00000-0  10130-3 0  9991,2 51724  53.2177 100.8922 0002021  49.0258 311.0908 15.08835541 38453,6917.894,95.438,541.1569999999998,538.361,0.0
51724.0,STARLINK-3529,PAYLOAD,2022-10-24 20:09:18,15.08821754,0.0002029999999999,53.2183,99.1086,46.6791,313.437,-6.2307e-05,-1.279e-05,0.0,0 STARLINK-3529,1 51724U 22016L   22297.83979931 -.00001279  00000-0 -62307-4 0  9994,2 51724  53.2183  99.1086 0002030  46.6791 313.4370 15.08821754 38513,6917.936,95.439,541.206,538.3969999999998,0.0
51724.0,STARLINK-3529,PAYLOAD,2022-10-25 10:27:46,15.08829665,0.0001974,53.2182,96.432,45.2889,314.8264,-9.8663e-05,-1.858e-05,0.0,0 STARLINK-3529,1 51724U 22016L   22298.43595952 -.00001858  00000-0 -98663-4 0  9995,2 51724  53.2182  96.4320 0001974  45.2889 314.8264 15.08829665 37540,6917.9119999999975,95.438,541.143,538.411,0.0
